[{"OBJECT_NAME":"AETHER-2","OBJECT_ID":"2023-174AV","EPOCH":"2026-03-09T17:13:49.792224","MEAN_MOTION":15.33264165,"ECCENTRICITY":0.00086301,"INCLINATION":97.3931,"RA_OF_ASC_NODE":151.9008,"ARG_OF_PERICENTER":139.5247,"MEAN_ANOMALY":220.6639,"EPHEMERIS_TYPE":0,"CLASSIFICATION_TYPE":"U","NORAD_CAT_ID":58299,"ELEMENT_SET_NO":999,"REV_AT_EPOCH":12998,"BSTAR":0.00026165949,"MEAN_MOTION_DOT":8.341e-5,"MEAN_MOTION_DDOT":0},{"OBJECT_NAME":"STARLINK-32897","OBJECT_ID":"2025-029V","EPOCH":"2026-03-09T17:14:02.444640","MEAN_MOTION":15.30207132,"ECCENTRICITY":0.00016846,"INCLINATION":53.1597,"RA_OF_ASC_NODE":232.2028,"ARG_OF_PERICENTER":20.4546,"MEAN_ANOMALY":339.6522,"EPHEMERIS_TYPE":0,"CLASSIFICATION_TYPE":"U","NORAD_CAT_ID":62967,"ELEMENT_SET_NO":999,"REV_AT_EPOCH":6132,"BSTAR":0.00056297726,"MEAN_MOTION_DOT":0.00016355,"MEAN_MOTION_DDOT":0}]
